#aP2004  8 25  0  0  0.00000000      96 ORBIT IGb00 HLM  IGS
## 1285 259200.00000000   900.00000000 53242 0.0000000000000
+   29     1  3  4  5  6  7  8  9 10 11 13 14 15 16 17 18 19
+         20 21 22 23 24 25 26 27 28 29 30 31  0  0  0  0  0
+          0  0  0  0  0  0  0  0  0  0  0  0  0  0  0  0  0
+          0  0  0  0  0  0  0  0  0  0  0  0  0  0  0  0  0
+          0  0  0  0  0  0  0  0  0  0  0  0  0  0  0  0  0
++         3  3  3  3  3  3  3  3  3  4  3  3  3  3  3  3  3
++         4  3  3  4  3  3  3  3  4  3  3  3  0  0  0  0  0
++         0  0  0  0  0  0  0  0  0  0  0  0  0  0  0  0  0
++         0  0  0  0  0  0  0  0  0  0  0  0  0  0  0  0  0
++         0  0  0  0  0  0  0  0  0  0  0  0  0  0  0  0  0
%c cc cc ccc ccc cccc cccc cccc cccc ccccc ccccc ccccc ccccc
%c cc cc ccc ccc cccc cccc cccc cccc ccccc ccccc ccccc ccccc
%f  0.0000000  0.000000000  0.00000000000  0.000000000000000
%f  0.0000000  0.000000000  0.00000000000  0.000000000000000
%i    0    0    0    0      0      0      0      0         0
%i    0    0    0    0      0      0      0      0         0
/* FINAL ORBIT COMBINATION FROM WEIGHTED AVERAGE OF:        
/* cod emr esa gfz jpl mit ngs sio                          
/* REFERENCED TO IGS TIME AND TO WEIGHTED MEAN POLE:        
/* CLK ANT Z-OFFSET (M): II/IIA 1.023; IIR 0.000            
*  2004  8 25 15  0  0.00000000
P  1 -23568.515826  -5955.982188 -10537.118601    359.959274
P  3 -24284.334188 -11075.915087    361.937080     38.535237
P  4   5782.653023  24227.210797  -8733.660193   -265.714668
P  5  22814.808044 -13009.195164   3136.767104     45.824679
P  6   9509.076437 -12617.489897 -21157.511503    393.741517
P  7  11506.894986  18593.164143  15604.789332    389.186835
P  8   -414.438053  26363.508524    437.928576     -7.527905
P  9  14316.970849  -7441.235771  20571.266986     -1.484031
P 10  20380.990925   1640.848061 -17163.702972     49.528788
P 11 -14736.078503   9250.300316  20030.686570    143.601040
P 13  -6934.045725  12997.967731 -22160.532699    -23.334650
P 14 -10284.594052 -18378.335041  16232.075400    -25.848380
P 15  -4380.401627 -24479.120095   8705.973506    311.368679
P 16 -15762.595138  -7016.512884 -20120.899328      6.875103
P 17  14592.563165   3886.216165 -21669.191515   -135.189869
P 18  13729.288177 -18023.364154  13694.834541    -68.819959
P 19 -22911.000962  -3947.819997  12892.774838     -9.857516
P 20 -23036.098944  13202.729706    704.342654   -129.659157
P 21   5922.878198 -24699.544219  -6968.523255     78.705831
P 22   2077.090617 -17098.029338  20380.665240     15.940346
P 23 -19478.052357   3370.270287 -17890.804906    156.133144
P 24  11764.852423  15150.116728 -18034.780333     52.363802
P 25 -10126.278042 -21664.400005 -11181.387302     74.183935
P 26  24186.485507   7249.510358   8881.176057    204.253031
P 27  -4351.096758  24427.238935  -8279.594919    380.052029
P 28  -1035.704967  17099.464037  20420.133337     40.521693
P 29  24480.878884   9020.400475   5505.477663    358.853689
P 30  17562.973719 -18172.576428  -8221.623556    552.812735
P 31   5041.420725  17816.820725  18593.296176    299.919036
*  2004  8 25 15 15  0.00000000
P  1 -24417.318054  -6641.196170  -7911.711038    359.963473
P  3 -24056.758500 -11336.638581  -2408.842044     38.538706
P  4   5527.934756  25086.436552  -6036.225860   -265.728608
P  5  22582.291130 -12422.815674   5889.270570     45.826882
P  6  11680.519289 -11490.889066 -20722.930685    393.767374
P  7   9774.625406  18003.846348  17406.706216    389.168138
P  8   -681.546945  26269.832111  -2445.096299     -7.528845
P  9  14580.068779  -4962.055870  21146.491724     -1.485846
P 10  18699.581350   2790.989579 -18829.224344     49.529603
P 11 -15182.895895   6938.710108  20635.841373    143.603388
P 13  -9139.224544  11801.520459 -22023.734482    -23.334264
P 14  -8499.208945 -17584.707119  18046.416728    -25.848846
P 15  -4098.028407 -25342.493084   5994.525898    311.372916
P 16 -13803.839457  -8352.376965 -21023.584653      6.874882
P 17  14396.097689   6373.212545 -21279.641187   -135.198627
P 18  15082.980338 -18546.931671  11343.378469    -68.823916
P 19 -23937.602891  -4813.696687  10483.460535     -9.855787
P 20 -22957.836589  12859.348731   3551.818305   -129.655976
P 21   6207.306041 -23739.409659  -9611.242794     78.706345
P 22   4075.829205 -18096.480758  19173.438743     15.939986
P 23 -21113.695417   2346.418987 -16107.468424    156.141302
P 24  11591.459375  17166.127931 -16277.414116     52.367311
P 25 -10005.198081 -22876.283441  -8678.477054     74.185086
P 26  24894.874998   7794.457408   6189.958924    204.264159
P 27  -4763.159073  23287.301451 -10839.030688    380.067200
P 28  -3000.184495  18176.215399  19221.790876     40.522434
P 29  24787.869566   9383.692572   2668.277882    358.845327
P 30  18359.996557 -18359.302585  -5543.591863    552.810710
P 31   2906.570941  17010.217201  19776.230145    299.927724
*  2004  8 25 15 30  0.00000000
P  1 -25026.213571  -7144.127123  -5149.380149    359.964388
P  3 -23552.711757 -11501.972672  -5138.826408     38.540930
P  4   5293.048750  25644.962673  -3232.865052   -265.743205
P  5  22143.097125 -11628.690654   8538.994476     45.827626
P  6  13837.102622 -10496.997238 -19925.999730    393.793376
P  7   7845.730850  17433.414594  18919.707526    389.149583
P  8   -972.432897  25864.458530  -5285.254960     -7.530103
P  9  14970.588731  -2457.706708  21340.978210     -1.485882
P 10  16944.582914   4131.558507 -20175.182993     49.528778
P 11 -15738.373298   4603.052729  20885.207134    143.606106
P 13 -11375.111089  10745.455001 -21509.909663    -23.333498
P 14  -6501.625950 -16813.473888  19551.322469    -25.849707
P 15  -3854.630612 -25902.853400   3177.556509    311.377513
P 16 -11850.400681  -9836.433962 -21562.093661      6.874651
P 17  14333.561793   8793.805211 -20520.202990   -135.207512
P 18  16175.315004 -18987.846966   8794.500725    -68.827412
P 19 -24757.017752  -5496.112444   7893.974999     -9.853931
P 20 -22640.158156  12323.480651   6338.100713   -129.653175
P 21   6553.239762 -22504.036727 -12084.630823     78.706787
P 22   5890.187323 -19115.719622  17640.624375     15.939938
P 23 -22603.477961   1498.101241 -14050.026186    156.149310
P 24  11514.270771  18969.373412 -14232.982495     52.369883
P 25  -9892.746278 -23802.076437  -6024.021270     74.185236
P 26  25353.473072   8165.673524   3395.117984    204.275020
P 27  -5276.418750  21886.721925 -13202.428473    380.081939
P 28  -4783.792812  19266.588516  17695.074247     40.522964
P 29  24816.507478   9604.991757   -214.422048    358.837120
P 30  18904.510607 -18396.438938  -2770.055756    552.808309
P 31    630.209658  16263.054995  20606.571831    299.936515
*  2004  8 25 15 45  0.00000000
P  1 -25365.969678  -7491.931123  -2298.104454    359.967755
P  3 -22768.638546 -11606.557732  -7781.844703     38.545024
P  4   5041.032745  25895.007933   -372.748919   -265.756938
P  5  21530.871008 -10612.103919  11039.542351     45.828268
P  6  15932.752417  -9644.259481 -18781.227107    393.819018
P  7   5748.732259  16913.330252  20119.180050    389.130618
P  8  -1323.459990  25159.551202  -8032.988069     -7.531294
P  9  15483.853536     20.887142  21152.246929     -1.486939
P 10  15162.149549   5652.069010 -21178.189160     49.529703
P 11 -16395.900975   2287.544273  20774.923095    143.608944
P 13 -13593.476124   9844.071420 -20627.606738    -23.332806
P 14  -4322.869934 -16100.475083  20721.061542    -25.850442
P 15  -3613.147838 -26150.965193    304.755279    311.381486
P 16  -9945.644261 -11445.715932 -21726.954821      6.873939
P 17  14395.587701  11100.319457 -19406.464120   -135.216201
P 18  17005.103346 -19305.429593   6092.350965    -68.831113
P 19 -25335.302340  -6015.591517   5168.633687     -9.852126
P 20 -22113.626899  11572.412938   9015.096246   -129.649915
P 21   6990.688437 -21020.781692 -14345.551684     78.706964
P 22   7496.860266 -20116.734983  15807.978312     15.939798
P 23 -23905.920774    814.212021 -11753.391542    156.157485
P 24  11504.535223  20525.723941 -11938.065789     52.373360
P 25  -9752.904604 -24432.530467  -3264.794316     74.185713
P 26  25537.644293   8393.602027    543.682229    204.285756
P 27  -5915.608797  20258.646434 -15326.385362    380.096755
P 28  -6364.267916  20330.222058  15865.002046     40.524021
P 29  24548.726205   9718.742676  -3093.428568    358.828908
P 30  19210.366262 -18250.272706     51.333983    552.806195
P 31  -1747.258389  15601.798767  21070.019361    299.945278
EOF
